{
"type": "FeatureCollection",
"name": "monas_to_bundaran_hi_route",
"crs": { "type": "name", "properties": { "name": "urn:ogc:def:crs:OGC:1.3:CRS84" } },
"features": [
{ "type": "Feature", "properties": { }, "geometry": { "type": "LineString", "coordinates": [ [ 106.8301935, -6.1735159 ], [ 106.8301077, -6.1734893 ], [ 106.8299307, -6.1734189 ], [ 106.8298335, -6.1733837 ], [ 106.8297748, -6.1733652 ], [ 106.8294049, -6.1732264 ], [ 106.8293213, -6.1731823 ], [ 106.8292486, -6.173127 ], [ 106.829199, -6.173067 ], [ 106.8291604, -6.1730023 ], [ 106.8291299, -6.1729264 ], [ 106.8291168, -6.1728623 ], [ 106.8291138, -6.172812 ], [ 106.8291168, -6.1727097 ], [ 106.8291315, -6.1726438 ], [ 106.8292088, -6.1723276 ] ] } },
{ "type": "Feature", "properties": { }, "geometry": { "type": "LineString", "coordinates": [ [ 106.8292088, -6.1723276 ], [ 106.8292805, -6.1720273 ], [ 106.8292934, -6.1719442 ], [ 106.8292972, -6.1718717 ], [ 106.8292911, -6.1718077 ], [ 106.829273, -6.1717529 ], [ 106.8292415, -6.171701 ], [ 106.829197, -6.1716563 ], [ 106.8291282, -6.1715977 ], [ 106.8290704, -6.1715599 ], [ 106.8290075, -6.171531 ], [ 106.82895, -6.1715133 ], [ 106.8288841, -6.1714997 ], [ 106.8288016, -6.1714906 ], [ 106.8277989, -6.17148 ], [ 106.8275451, -6.1714801 ], [ 106.8273546, -6.1714785 ], [ 106.8270347, -6.1714768 ] ] } },
{ "type": "Feature", "properties": { }, "geometry": { "type": "LineString", "coordinates": [ [ 106.8270347, -6.1714768 ], [ 106.8269852, -6.1714762 ], [ 106.8256745, -6.1714627 ], [ 106.8255627, -6.1714604 ] ] } },
{ "type": "Feature", "properties": { }, "geometry": { "type": "LineString", "coordinates": [ [ 106.8255627, -6.1714604 ], [ 106.8239375, -6.1714558 ], [ 106.8237265, -6.1714585 ] ] } },
{ "type": "Feature", "properties": { }, "geometry": { "type": "LineString", "coordinates": [ [ 106.8237265, -6.1714585 ], [ 106.8234696, -6.1715736 ], [ 106.823354, -6.1716537 ], [ 106.8232402, -6.1717794 ], [ 106.8232246, -6.1718069 ], [ 106.8231891, -6.1719051 ] ] } },
{ "type": "Feature", "properties": { }, "geometry": { "type": "LineString", "coordinates": [ [ 106.8231891, -6.1719051 ], [ 106.8231774, -6.172124 ], [ 106.8231626, -6.172527 ], [ 106.8231096, -6.1741872 ] ] } },
{ "type": "Feature", "properties": { }, "geometry": { "type": "LineString", "coordinates": [ [ 106.8231096, -6.1741872 ], [ 106.8230902, -6.1746266 ] ] } },
{ "type": "Feature", "properties": { }, "geometry": { "type": "LineString", "coordinates": [ [ 106.8230902, -6.1746266 ], [ 106.8230889, -6.1746795 ], [ 106.8230564, -6.175669 ], [ 106.8230542, -6.1760737 ], [ 106.8229715, -6.1792534 ], [ 106.8229682, -6.1793768 ], [ 106.822966, -6.1794632 ], [ 106.8229804, -6.1797226 ] ] } },
{ "type": "Feature", "properties": { }, "geometry": { "type": "LineString", "coordinates": [ [ 106.8229804, -6.1797226 ], [ 106.8229997, -6.1798686 ], [ 106.8230297, -6.1800095 ], [ 106.8230898, -6.1803017 ], [ 106.8230934, -6.1803242 ], [ 106.8231036, -6.1804232 ] ] } },
{ "type": "Feature", "properties": { }, "geometry": { "type": "LineString", "coordinates": [ [ 106.8231036, -6.1804232 ], [ 106.8231216, -6.1804456 ] ] } },
{ "type": "Feature", "properties": { }, "geometry": { "type": "LineString", "coordinates": [ [ 106.8231216, -6.1804456 ], [ 106.8231458, -6.180483 ], [ 106.8231733, -6.1805508 ], [ 106.8231845, -6.1806231 ], [ 106.8231789, -6.180696 ], [ 106.8231567, -6.1807657 ] ] } },
{ "type": "Feature", "properties": { }, "geometry": { "type": "LineString", "coordinates": [ [ 106.8231567, -6.1807657 ], [ 106.8231295, -6.1808144 ], [ 106.8231032, -6.1808465 ], [ 106.8230941, -6.1808576 ], [ 106.8230517, -6.180894 ] ] } },
{ "type": "Feature", "properties": { }, "geometry": { "type": "LineString", "coordinates": [ [ 106.8230517, -6.180894 ], [ 106.8230507, -6.180966 ], [ 106.8230507, -6.1809975 ] ] } },
{ "type": "Feature", "properties": { }, "geometry": { "type": "LineString", "coordinates": [ [ 106.8230507, -6.1809975 ], [ 106.8230288, -6.1810776 ], [ 106.8230277, -6.1811325 ], [ 106.8230731, -6.1818582 ], [ 106.8230785, -6.1819701 ], [ 106.8230817, -6.182035 ], [ 106.8231029, -6.1824699 ], [ 106.8231061, -6.1825393 ], [ 106.823107, -6.1825592 ], [ 106.8231135, -6.182684 ], [ 106.8231219, -6.1827998 ], [ 106.8231561, -6.1831401 ], [ 106.8231695, -6.1832736 ] ] } },
{ "type": "Feature", "properties": { }, "geometry": { "type": "LineString", "coordinates": [ [ 106.8231695, -6.1832736 ], [ 106.8231761, -6.1833631 ] ] } },
{ "type": "Feature", "properties": { }, "geometry": { "type": "LineString", "coordinates": [ [ 106.8231761, -6.1833631 ], [ 106.8231778, -6.1834148 ], [ 106.823198, -6.1837391 ], [ 106.8232044, -6.1838419 ], [ 106.8232194, -6.1840167 ], [ 106.8232475, -6.1844606 ], [ 106.8232601, -6.1846567 ], [ 106.8232691, -6.1848297 ], [ 106.8232785, -6.1851544 ], [ 106.8232796, -6.1852209 ], [ 106.8232782, -6.1854559 ], [ 106.8232774, -6.1855915 ], [ 106.8232662, -6.1857185 ], [ 106.823257, -6.1858563 ], [ 106.8232467, -6.1860142 ], [ 106.823241, -6.186101 ], [ 106.8232399, -6.1861185 ], [ 106.823235, -6.186235 ], [ 106.8232268, -6.1864937 ], [ 106.8232157, -6.186847 ], [ 106.8232143, -6.1868861 ], [ 106.8232087, -6.1869742 ] ] } },
{ "type": "Feature", "properties": { }, "geometry": { "type": "LineString", "coordinates": [ [ 106.8232087, -6.1869742 ], [ 106.8232039, -6.1870588 ] ] } },
{ "type": "Feature", "properties": { }, "geometry": { "type": "LineString", "coordinates": [ [ 106.8232039, -6.1870588 ], [ 106.8232009, -6.1871302 ], [ 106.8232011, -6.187256 ], [ 106.8231675, -6.1878931 ], [ 106.8231652, -6.1879386 ], [ 106.8231367, -6.1884908 ] ] } },
{ "type": "Feature", "properties": { }, "geometry": { "type": "LineString", "coordinates": [ [ 106.8231367, -6.1884908 ], [ 106.8231264, -6.1888166 ], [ 106.8231173, -6.1891341 ], [ 106.8231142, -6.1892478 ], [ 106.823108, -6.1894348 ], [ 106.8231006, -6.1896877 ], [ 106.8230989, -6.1898116 ], [ 106.8230749, -6.1903963 ], [ 106.8230741, -6.1906818 ], [ 106.8230748, -6.1907754 ], [ 106.8230779, -6.1909009 ], [ 106.823079, -6.1910808 ], [ 106.8230813, -6.1911752 ], [ 106.8231024, -6.1920259 ], [ 106.823115, -6.192508 ], [ 106.8231159, -6.1925529 ], [ 106.8231437, -6.1932094 ], [ 106.8231446, -6.1932562 ], [ 106.8231494, -6.1934134 ], [ 106.8231602, -6.1937625 ], [ 106.8231698, -6.1941125 ], [ 106.823182, -6.1941942 ], [ 106.8232089, -6.1942529 ], [ 106.8232495, -6.1943285 ], [ 106.82326, -6.1943468 ] ] } },
{ "type": "Feature", "properties": { }, "geometry": { "type": "LineString", "coordinates": [ [ 106.82326, -6.1943468 ], [ 106.8233489, -6.1944847 ], [ 106.8233781, -6.1945256 ], [ 106.8234018, -6.1945614 ], [ 106.8234735, -6.1946762 ] ] } },
{ "type": "Feature", "properties": { }, "geometry": { "type": "LineString", "coordinates": [ [ 106.8234735, -6.1946762 ], [ 106.8234873, -6.194697 ], [ 106.8235001, -6.1947183 ], [ 106.8235119, -6.1947403 ], [ 106.8235226, -6.1947628 ], [ 106.8235323, -6.1947858 ], [ 106.8235408, -6.1948092 ], [ 106.8235483, -6.194833 ], [ 106.8235545, -6.1948571 ], [ 106.8235597, -6.1948815 ], [ 106.8235607, -6.1948876 ], [ 106.8235636, -6.194906 ], [ 106.8235664, -6.1949308 ], [ 106.823568, -6.1949556 ], [ 106.8235685, -6.1949805 ], [ 106.8235677, -6.1950054 ], [ 106.8235657, -6.1950303 ], [ 106.8235626, -6.195055 ], [ 106.823563, -6.1950682 ] ] } },
{ "type": "Feature", "properties": { }, "geometry": { "type": "LineString", "coordinates": [ [ 106.823563, -6.1950682 ], [ 106.8235504, -6.1951133 ], [ 106.8235402, -6.1951465 ], [ 106.8235279, -6.195179 ], [ 106.8235134, -6.1952105 ], [ 106.8234969, -6.1952411 ], [ 106.8234784, -6.1952705 ], [ 106.823458, -6.1952987 ], [ 106.8234357, -6.1953254 ], [ 106.8233988, -6.1953626 ], [ 106.8233936, -6.1953676 ], [ 106.8233471, -6.1954048 ], [ 106.8233327, -6.1954142 ] ] } },
{ "type": "Feature", "properties": { }, "geometry": { "type": "LineString", "coordinates": [ [ 106.8233327, -6.1954142 ], [ 106.8233007, -6.1954352 ], [ 106.8232923, -6.1954409 ], [ 106.8232358, -6.1954691 ], [ 106.823158, -6.1954931 ], [ 106.8230771, -6.1955021 ], [ 106.8229959, -6.1954956 ], [ 106.8229175, -6.1954739 ], [ 106.8228025, -6.1954336 ], [ 106.8226957, -6.1953768 ] ] } },
{ "type": "Feature", "properties": { }, "geometry": { "type": "LineString", "coordinates": [ [ 106.8226957, -6.1953768 ], [ 106.8226053, -6.1952778 ], [ 106.8225431, -6.1951593 ], [ 106.8225208, -6.195055 ], [ 106.8225129, -6.19493 ], [ 106.822517, -6.194893 ] ] } }
]
}
