{
"type": "FeatureCollection",
"name": "monas_isochrone_10min",
"crs": { "type": "name", "properties": { "name": "urn:ogc:def:crs:OGC:1.3:CRS84" } },
"features": [
{ "type": "Feature", "properties": { }, "geometry": { "type": "Polygon", "coordinates": [ [ [ 106.823424, -6.199872 ], [ 106.8145845, -6.1935439 ], [ 106.8115953, -6.18861 ], [ 106.8025518, -6.1677709 ], [ 106.8021399, -6.1659333 ], [ 106.8053313, -6.1626359 ], [ 106.8068595, -6.1614872 ], [ 106.831965, -6.1443048 ], [ 106.8339744, -6.1444252 ], [ 106.8502799, -6.1531435 ], [ 106.8555139, -6.1593394 ], [ 106.8594624, -6.169032 ], [ 106.8486255, -6.1925594 ], [ 106.8413383, -6.1982936 ], [ 106.823424, -6.199872 ] ] ] } }
]
}
